[{"OBJECT_NAME":"STARLINK-5604","OBJECT_ID":"2023-014AF","EPOCH":"2026-03-09T07:48:09.389088","MEAN_MOTION":14.98329544,"ECCENTRICITY":0.00029176,"INCLINATION":70.0002,"RA_OF_ASC_NODE":45.4011,"ARG_OF_PERICENTER":268.8937,"MEAN_ANOMALY":91.1887,"EPHEMERIS_TYPE":0,"CLASSIFICATION_TYPE":"U","NORAD_CAT_ID":55420,"ELEMENT_SET_NO":999,"REV_AT_EPOCH":17249,"BSTAR":3.1325975e-5,"MEAN_MOTION_DOT":2.81e-6,"MEAN_MOTION_DDOT":0},{"OBJECT_NAME":"COSMOS 397 DEB","OBJECT_ID":"1971-015K","EPOCH":"2026-03-09T22:19:18.882624","MEAN_MOTION":13.64687983,"ECCENTRICITY":0.06428394,"INCLINATION":65.8167,"RA_OF_ASC_NODE":317.2661,"ARG_OF_PERICENTER":130.2225,"MEAN_ANOMALY":235.6932,"EPHEMERIS_TYPE":0,"CLASSIFICATION_TYPE":"U","NORAD_CAT_ID":5016,"ELEMENT_SET_NO":999,"REV_AT_EPOCH":63965,"BSTAR":0.0010600435,"MEAN_MOTION_DOT":3.54e-5,"MEAN_MOTION_DDOT":0}]
